CCSDS_OMM_VERS = 2.0
CREATION_DATE  = 
ORIGINATOR     = 

OBJECT_NAME    = STARLINK-36582
OBJECT_ID      = 2026-018L
CENTER_NAME    = EARTH
REF_FRAME      = TEME
TIME_SYSTEM    = UTC
MEAN_ELEMENT_THEORY = SGP/SGP4

EPOCH          = 2026-02-11T22:00:01.999584
MEAN_MOTION    = 15.80844242
ECCENTRICITY   = .0001206
INCLINATION    = 97.2839
RA_OF_ASC_NODE = 107.4183
ARG_OF_PERICENTER = 103.3610
MEAN_ANOMALY   = 70.5029

EPHEMERIS_TYPE = 0
CLASSIFICATION_TYPE = U
NORAD_CAT_ID   = 67599
ELEMENT_SET_NO = 999
REV_AT_EPOCH   = 331
BSTAR          = -.36859294E-3
MEAN_MOTION_DOT = -.70269E-3
MEAN_MOTION_DDOT = 0

CCSDS_OMM_VERS = 2.0
CREATION_DATE  = 
ORIGINATOR     = 

OBJECT_NAME    = STARLINK-36640
OBJECT_ID      = 2026-018M
CENTER_NAME    = EARTH
REF_FRAME      = TEME
TIME_SYSTEM    = UTC
MEAN_ELEMENT_THEORY = SGP/SGP4

EPOCH          = 2026-02-11T22:00:01.999584
MEAN_MOTION    = 15.76475796
ECCENTRICITY   = .00019174
INCLINATION    = 97.2803
RA_OF_ASC_NODE = 107.4212
ARG_OF_PERICENTER = 65.5791
MEAN_ANOMALY   = 112.3339

EPHEMERIS_TYPE = 0
CLASSIFICATION_TYPE = U
NORAD_CAT_ID   = 67600
ELEMENT_SET_NO = 999
REV_AT_EPOCH   = 321
BSTAR          = -.1105157E-1
MEAN_MOTION_DOT = -.1532054E-1
MEAN_MOTION_DDOT = 0

CCSDS_OMM_VERS = 2.0
CREATION_DATE  = 
ORIGINATOR     = 

OBJECT_NAME    = STARLINK-36635
OBJECT_ID      = 2026-018N
CENTER_NAME    = EARTH
REF_FRAME      = TEME
TIME_SYSTEM    = UTC
MEAN_ELEMENT_THEORY = SGP/SGP4

EPOCH          = 2026-02-11T22:00:01.999584
MEAN_MOTION    = 15.80774122
ECCENTRICITY   = .000153
INCLINATION    = 97.2839
RA_OF_ASC_NODE = 107.4202
ARG_OF_PERICENTER = 54.5158
MEAN_ANOMALY   = 124.4236

EPHEMERIS_TYPE = 0
CLASSIFICATION_TYPE = U
NORAD_CAT_ID   = 67601
ELEMENT_SET_NO = 999
REV_AT_EPOCH   = 321
BSTAR          = .27032225E-3
MEAN_MOTION_DOT = .51847E-3
MEAN_MOTION_DDOT = 0

CCSDS_OMM_VERS = 2.0
CREATION_DATE  = 
ORIGINATOR     = 

OBJECT_NAME    = STARLINK-36631
OBJECT_ID      = 2026-018P
CENTER_NAME    = EARTH
REF_FRAME      = TEME
TIME_SYSTEM    = UTC
MEAN_ELEMENT_THEORY = SGP/SGP4

EPOCH          = 2026-02-11T22:00:01.999584
MEAN_MOTION    = 15.80833087
ECCENTRICITY   = .00014681
INCLINATION    = 97.2839
RA_OF_ASC_NODE = 107.4257
ARG_OF_PERICENTER = 102.6505
MEAN_ANOMALY   = 89.7922

EPHEMERIS_TYPE = 0
CLASSIFICATION_TYPE = U
NORAD_CAT_ID   = 67602
ELEMENT_SET_NO = 999
REV_AT_EPOCH   = 320
BSTAR          = -.22022416E-3
MEAN_MOTION_DOT = -.42156E-3
MEAN_MOTION_DDOT = 0

CCSDS_OMM_VERS = 2.0
CREATION_DATE  = 
ORIGINATOR     = 

OBJECT_NAME    = STARLINK-36626
OBJECT_ID      = 2026-018Q
CENTER_NAME    = EARTH
REF_FRAME      = TEME
TIME_SYSTEM    = UTC
MEAN_ELEMENT_THEORY = SGP/SGP4

EPOCH          = 2026-02-11T22:00:01.999584
MEAN_MOTION    = 15.80876244
ECCENTRICITY   = .00014632
INCLINATION    = 97.2823
RA_OF_ASC_NODE = 107.4333
ARG_OF_PERICENTER = 65.4737
MEAN_ANOMALY   = 144.9555

EPHEMERIS_TYPE = 0
CLASSIFICATION_TYPE = U
NORAD_CAT_ID   = 67603
ELEMENT_SET_NO = 999
REV_AT_EPOCH   = 320
BSTAR          = -.67816131E-3
MEAN_MOTION_DOT = -.128506E-2
MEAN_MOTION_DDOT = 0

CCSDS_OMM_VERS = 2.0
CREATION_DATE  = 
ORIGINATOR     = 

OBJECT_NAME    = STARLINK-36605
OBJECT_ID      = 2026-018R
CENTER_NAME    = EARTH
REF_FRAME      = TEME
TIME_SYSTEM    = UTC
MEAN_ELEMENT_THEORY = SGP/SGP4

EPOCH          = 2026-02-11T22:00:01.999584
MEAN_MOTION    = 15.81243008
ECCENTRICITY   = .00018996
INCLINATION    = 97.2823
RA_OF_ASC_NODE = 107.4304
ARG_OF_PERICENTER = 108.9586
MEAN_ANOMALY   = 96.6155

EPHEMERIS_TYPE = 0
CLASSIFICATION_TYPE = U
NORAD_CAT_ID   = 67604
ELEMENT_SET_NO = 999
REV_AT_EPOCH   = 320
BSTAR          = -.85752115E-2
MEAN_MOTION_DOT = -.1482321E-1
MEAN_MOTION_DDOT = 0

CCSDS_OMM_VERS = 2.0
CREATION_DATE  = 
ORIGINATOR     = 

OBJECT_NAME    = STARLINK-36281
OBJECT_ID      = 2026-018S
CENTER_NAME    = EARTH
REF_FRAME      = TEME
TIME_SYSTEM    = UTC
MEAN_ELEMENT_THEORY = SGP/SGP4

EPOCH          = 2026-02-11T22:00:01.999584
MEAN_MOTION    = 15.80818024
ECCENTRICITY   = .00015555
INCLINATION    = 97.2824
RA_OF_ASC_NODE = 107.4284
ARG_OF_PERICENTER = 82.3496
MEAN_ANOMALY   = 117.1787

EPHEMERIS_TYPE = 0
CLASSIFICATION_TYPE = U
NORAD_CAT_ID   = 67605
ELEMENT_SET_NO = 999
REV_AT_EPOCH   = 325
BSTAR          = .18710303E-4
MEAN_MOTION_DOT = .3444E-4
MEAN_MOTION_DDOT = 0

CCSDS_OMM_VERS = 2.0
CREATION_DATE  = 
ORIGINATOR     = 

OBJECT_NAME    = STARLINK-35843
OBJECT_ID      = 2026-018T
CENTER_NAME    = EARTH
REF_FRAME      = TEME
TIME_SYSTEM    = UTC
MEAN_ELEMENT_THEORY = SGP/SGP4

EPOCH          = 2026-02-11T22:00:01.999584
MEAN_MOTION    = 15.80790058
ECCENTRICITY   = .00013653
INCLINATION    = 97.2818
RA_OF_ASC_NODE = 107.4345
ARG_OF_PERICENTER = 100.2260
MEAN_ANOMALY   = 115.8798

EPHEMERIS_TYPE = 0
CLASSIFICATION_TYPE = U
NORAD_CAT_ID   = 67606
ELEMENT_SET_NO = 999
REV_AT_EPOCH   = 326
BSTAR          = .14177787E-3
MEAN_MOTION_DOT = .27067E-3
MEAN_MOTION_DDOT = 0

CCSDS_OMM_VERS = 2.0
CREATION_DATE  = 
ORIGINATOR     = 

OBJECT_NAME    = STARLINK-36351
OBJECT_ID      = 2026-018U
CENTER_NAME    = EARTH
REF_FRAME      = TEME
TIME_SYSTEM    = UTC
MEAN_ELEMENT_THEORY = SGP/SGP4

EPOCH          = 2026-02-11T22:00:01.999584
MEAN_MOTION    = 15.80831568
ECCENTRICITY   = .00016669
INCLINATION    = 97.2820
RA_OF_ASC_NODE = 107.4373
ARG_OF_PERICENTER = 88.1666
MEAN_ANOMALY   = 132.9430

EPHEMERIS_TYPE = 0
CLASSIFICATION_TYPE = U
NORAD_CAT_ID   = 67607
ELEMENT_SET_NO = 999
REV_AT_EPOCH   = 326
BSTAR          = -.35038729E-3
MEAN_MOTION_DOT = -.66797E-3
MEAN_MOTION_DDOT = 0

CCSDS_OMM_VERS = 2.0
CREATION_DATE  = 
ORIGINATOR     = 

OBJECT_NAME    = STARLINK-36411
OBJECT_ID      = 2026-018V
CENTER_NAME    = EARTH
REF_FRAME      = TEME
TIME_SYSTEM    = UTC
MEAN_ELEMENT_THEORY = SGP/SGP4

EPOCH          = 2026-02-11T22:00:01.999584
MEAN_MOTION    = 15.80791980
ECCENTRICITY   = .00012753
INCLINATION    = 97.2788
RA_OF_ASC_NODE = 107.4399
ARG_OF_PERICENTER = 92.8379
MEAN_ANOMALY   = 136.0453

EPHEMERIS_TYPE = 0
CLASSIFICATION_TYPE = U
NORAD_CAT_ID   = 67608
ELEMENT_SET_NO = 999
REV_AT_EPOCH   = 325
BSTAR          = .13390516E-3
MEAN_MOTION_DOT = .25554E-3
MEAN_MOTION_DDOT = 0

CCSDS_OMM_VERS = 2.0
CREATION_DATE  = 
ORIGINATOR     = 

OBJECT_NAME    = STARLINK-36312
OBJECT_ID      = 2026-018W
CENTER_NAME    = EARTH
REF_FRAME      = TEME
TIME_SYSTEM    = UTC
MEAN_ELEMENT_THEORY = SGP/SGP4

EPOCH          = 2026-02-11T22:00:01.999584
MEAN_MOTION    = 15.80820095
ECCENTRICITY   = .00013226
INCLINATION    = 97.2794
RA_OF_ASC_NODE = 107.4429
ARG_OF_PERICENTER = 89.9414
MEAN_ANOMALY   = 145.6844

EPHEMERIS_TYPE = 0
CLASSIFICATION_TYPE = U
NORAD_CAT_ID   = 67609
ELEMENT_SET_NO = 999
REV_AT_EPOCH   = 326
BSTAR          = -.20920511E-3
MEAN_MOTION_DOT = -.40038E-3
MEAN_MOTION_DDOT = 0

CCSDS_OMM_VERS = 2.0
CREATION_DATE  = 
ORIGINATOR     = 

OBJECT_NAME    = STARLINK-36387
OBJECT_ID      = 2026-018X
CENTER_NAME    = EARTH
REF_FRAME      = TEME
TIME_SYSTEM    = UTC
MEAN_ELEMENT_THEORY = SGP/SGP4

EPOCH          = 2026-02-11T22:00:01.999584
MEAN_MOTION    = 15.80851666
ECCENTRICITY   = .0001395
INCLINATION    = 97.2793
RA_OF_ASC_NODE = 107.4455
ARG_OF_PERICENTER = 87.4394
MEAN_ANOMALY   = 156.3748

EPHEMERIS_TYPE = 0
CLASSIFICATION_TYPE = U
NORAD_CAT_ID   = 67610
ELEMENT_SET_NO = 999
REV_AT_EPOCH   = 326
BSTAR          = -.37579913E-3
MEAN_MOTION_DOT = -.71655E-3
MEAN_MOTION_DDOT = 0

