STARLINK-36582          
1 67599U 26018L   26042.91668981 -.00070269  00000+0 -36859-3 0  9994
2 67599  97.2839 107.4183 0001206 103.3610  70.5029 15.80844242  3311
STARLINK-36640          
1 67600U 26018M   26042.91668981 -.01532054  00000+0 -11052-1 0  9999
2 67600  97.2803 107.4212 0001917  65.5791 112.3339 15.76475796  3213
STARLINK-36635          
1 67601U 26018N   26042.91668981  .00051847  00000+0  27032-3 0  9990
2 67601  97.2839 107.4202 0001530  54.5158 124.4236 15.80774122  3218
STARLINK-36631          
1 67602U 26018P   26042.91668981 -.00042156  00000+0 -22022-3 0  9990
2 67602  97.2839 107.4257 0001468 102.6505  89.7922 15.80833087  3200
STARLINK-36626          
1 67603U 26018Q   26042.91668981 -.00128506  00000+0 -67816-3 0  9995
2 67603  97.2823 107.4333 0001463  65.4737 144.9555 15.80876244  3205
STARLINK-36605          
1 67604U 26018R   26042.91668981 -.01482321  00000+0 -85752-2 0  9993
2 67604  97.2823 107.4304 0001899 108.9586  96.6155 15.81243008  3208
STARLINK-36281          
1 67605U 26018S   26042.91668981  .00003444  00000+0  18710-4 0  9998
2 67605  97.2824 107.4284 0001555  82.3496 117.1787 15.80818024  3251
STARLINK-35843          
1 67606U 26018T   26042.91668981  .00027067  00000+0  14178-3 0  9999
2 67606  97.2818 107.4345 0001365 100.2260 115.8798 15.80790058  3265
STARLINK-36351          
1 67607U 26018U   26042.91668981 -.00066797  00000+0 -35039-3 0  9994
2 67607  97.2820 107.4373 0001666  88.1666 132.9430 15.80831568  3263
STARLINK-36411          
1 67608U 26018V   26042.91668981  .00025554  00000+0  13391-3 0  9996
2 67608  97.2788 107.4399 0001275  92.8379 136.0453 15.80791980  3256
STARLINK-36312          
1 67609U 26018W   26042.91668981 -.00040038  00000+0 -20921-3 0  9990
2 67609  97.2794 107.4429 0001322  89.9414 145.6844 15.80820095  3269
STARLINK-36387          
1 67610U 26018X   26042.91668981 -.00071655  00000+0 -37580-3 0  9990
2 67610  97.2793 107.4455 0001395  87.4394 156.3748 15.80851666  3269
